{"type": "FeatureCollection", "features": [ {"type": "Feature", "properties": {"norad_id": 31211, "name": "FENGYUN 1C DEB", "group": "fengyun-1c-debris", "lat": 5.850224449638007, "lon": 20.251646606549897, "alt_km": 825.5345605926086, "timestamp": "2025-12-11T05:00:26.589883+00:00", "meta": {"OBJECT_NAME": "FENGYUN 1C DEB", "OBJECT_ID": "1999-025BKR", "EPOCH": "2025-12-06T20:08:03.397344", "MEAN_MOTION": 14.2001942, "ECCENTRICITY": 0.00510218, "INCLINATION": 98.6728, "RA_OF_ASC_NODE": 16.8654, "ARG_OF_PERICENTER": 106.1714, "MEAN_ANOMALY": 254.5086, "EPHEMERIS_TYPE": 0, "CLASSIFICATION_TYPE": "U", "NORAD_CAT_ID": 31211, "ELEMENT_SET_NO": 999, "REV_AT_EPOCH": 63209, "BSTAR": 0.001766209, "MEAN_MOTION_DOT": 3.766e-05, "MEAN_MOTION_DDOT": 0}, "tle": {"line1": "1 31211U 99025BKR 25340.83892821  .00003766  00000+0  17662-2 0  9993", "line2": "2 31211  98.6728  16.8654 0051021 106.1714 254.5086 14.20019420632092"}}, "geometry": {"type": "Point", "coordinates": [20.251646606549897, 5.850224449638007]}}, {"type": "Feature", "properties": {"norad_id": 31212, "name": "FENGYUN 1C DEB", "group": "fengyun-1c-debris", "lat": 22.27265437829278, "lon": 12.822223905363304, "alt_km": 896.3008897394384, "timestamp": "2025-12-11T05:00:26.589893+00:00", "meta": {"OBJECT_NAME": "FENGYUN 1C DEB", "OBJECT_ID": "1999-025BKS", "EPOCH": "2025-11-25T01:25:48.692640", "MEAN_MOTION": 14.12981607, "ECCENTRICITY": 0.00745379, "INCLINATION": 99.223, "RA_OF_ASC_NODE": 0.0078, "ARG_OF_PERICENTER": 220.8092, "MEAN_ANOMALY": 138.7482, "EPHEMERIS_TYPE": 0, "CLASSIFICATION_TYPE": "U", "NORAD_CAT_ID": 31212, "ELEMENT_SET_NO": 999, "REV_AT_EPOCH": 95409, "BSTAR": 0.0015990818, "MEAN_MOTION_DOT": 3.014e-05, "MEAN_MOTION_DDOT": 0}, "tle": {"line1": "1 31212U 99025BKS 25329.05959135  .00003014  00000+0  15991-2 0  9996", "line2": "2 31212  99.2230   0.0078 0074537 220.8092 138.7482 14.12981607954099"}}, "geometry": {"type": "Point", "coordinates": [12.822223905363304, 22.27265437829278]}}, {"type": "Feature", "properties": {"norad_id": 31215, "name": "FENGYUN 1C DEB", "group": "fengyun-1c-debris", "lat": -68.11783648333831, "lon": -14.247156047447197, "alt_km": 775.9176986033353, "timestamp": "2025-12-11T05:00:26.589903+00:00", "meta": {"OBJECT_NAME": "FENGYUN 1C DEB", "OBJECT_ID": "1999-025BKV", "EPOCH": "2025-12-01T19:24:11.403648", "MEAN_MOTION": 14.33696459, "ECCENTRICITY": 0.00702274, "INCLINATION": 99.0744, "RA_OF_ASC_NODE": 179.3473, "ARG_OF_PERICENTER": 355.6358, "MEAN_ANOMALY": 4.4204, "EPHEMERIS_TYPE": 0, "CLASSIFICATION_TYPE": "U", "NORAD_CAT_ID": 31215, "ELEMENT_SET_NO": 999, "REV_AT_EPOCH": 96369, "BSTAR": 0.00097709666, "MEAN_MOTION_DOT": 2.74e-05, "MEAN_MOTION_DDOT": 0}, "tle": {"line1": "1 31215U 99025BKV 25335.80846532  .00002740  00000+0  97710-3 0  9990", "line2": "2 31215  99.0744 179.3473 0070227 355.6358   4.4204 14.33696459963691"}}, "geometry": {"type": "Point", "coordinates": [-14.247156047447197, -68.11783648333831]}}, {"type": "Feature", "properties": {"norad_id": 31217, "name": "FENGYUN 1C DEB", "group": "fengyun-1c-debris", "lat": 45.04065170294658, "lon": -178.10391768498695, "alt_km": 767.5595227646772, "timestamp": "2025-12-11T05:00:26.589913+00:00", "meta": {"OBJECT_NAME": "FENGYUN 1C DEB", "OBJECT_ID": "1999-025BKX", "EPOCH": "2025-12-10T18:12:38.789856", "MEAN_MOTION": 14.17530773, "ECCENTRICITY": 0.00995635, "INCLINATION": 98.6406, "RA_OF_ASC_NODE": 352.6999, "ARG_OF_PERICENTER": 165.7191, "MEAN_ANOMALY": 194.6835, "EPHEMERIS_TYPE": 0, "CLASSIFICATION_TYPE": "U", "NORAD_CAT_ID": 31217, "ELEMENT_SET_NO": 999, "REV_AT_EPOCH": 96320, "BSTAR": 0.00080887954, "MEAN_MOTION_DOT": 1.682e-05, "MEAN_MOTION_DDOT": 0}, "tle": {"line1": "1 31217U 99025BKX 25344.75878229  .00001682  00000+0  80888-3 0  9996", "line2": "2 31217  98.6406 352.6999 0099563 165.7191 194.6835 14.17530773963208"}}, "geometry": {"type": "Point", "coordinates": [-178.10391768498695, 45.04065170294658]}}, {"type": "Feature", "properties": {"norad_id": 31218, "name": "FENGYUN 1C DEB", "group": "fengyun-1c-debris", "lat": 81.14656220507878, "lon": 7.7262700321921995, "alt_km": 640.8950293644093, "timestamp": "2025-12-11T05:00:26.589923+00:00", "meta": {"OBJECT_NAME": "FENGYUN 1C DEB", "OBJECT_ID": "1999-025BKY", "EPOCH": "2025-12-10T13:55:23.796192", "MEAN_MOTION": 14.72281671, "ECCENTRICITY": 0.0011582, "INCLINATION": 98.8395, "RA_OF_ASC_NODE": 94.5695, "ARG_OF_PERICENTER": 41.7641, "MEAN_ANOMALY": 318.4446, "EPHEMERIS_TYPE": 0, "CLASSIFICATION_TYPE": "U", "NORAD_CAT_ID": 31218, "ELEMENT_SET_NO": 999, "REV_AT_EPOCH": 97051, "BSTAR": 0.0070673, "MEAN_MOTION_DOT": 0.00044927, "MEAN_MOTION_DDOT": 0}, "tle": {"line1": "1 31218U 99025BKY 25344.58013653  .00044927  00000+0  70673-2 0  9999", "line2": "2 31218  98.8395  94.5695 0011582  41.7641 318.4446 14.72281671970518"}}, "geometry": {"type": "Point", "coordinates": [7.7262700321921995, 81.14656220507878]}}, {"type": "Feature", "properties": {"norad_id": 31219, "name": "FENGYUN 1C DEB", "group": "fengyun-1c-debris", "lat": -79.92028545356241, "lon": 61.980372475935525, "alt_km": 855.7607820891999, "timestamp": "2025-12-11T05:00:26.589933+00:00", "meta": {"OBJECT_NAME": "FENGYUN 1C DEB", "OBJECT_ID": "1999-025BKZ", "EPOCH": "2025-12-08T11:10:29.742528", "MEAN_MOTION": 14.13752894, "ECCENTRICITY": 0.00789844, "INCLINATION": 99.2851, "RA_OF_ASC_NODE": 352.1645, "ARG_OF_PERICENTER": 189.1751, "MEAN_ANOMALY": 170.7982, "EPHEMERIS_TYPE": 0, "CLASSIFICATION_TYPE": "U", "NORAD_CAT_ID": 31219, "ELEMENT_SET_NO": 999, "REV_AT_EPOCH": 95509, "BSTAR": 0.0022347754, "MEAN_MOTION_DOT": 4.308e-05, "MEAN_MOTION_DDOT": 0}, "tle": {"line1": "1 31219U 99025BKZ 25342.46562202  .00004308  00000+0  22348-2 0  9999", "line2": "2 31219  99.2851 352.1645 0078984 189.1751 170.7982 14.13752894955092"}}, "geometry": {"type": "Point", "coordinates": [61.980372475935525, -79.92028545356241]}}, {"type": "Feature", "properties": {"norad_id": 31222, "name": "FENGYUN 1C DEB", "group": "fengyun-1c-debris", "lat": -4.29730602284822, "lon": 55.67783057123538, "alt_km": 552.383697270232, "timestamp": "2025-12-11T05:00:26.589943+00:00", "meta": {"OBJECT_NAME": "FENGYUN 1C DEB", "OBJECT_ID": "1999-025BLC", "EPOCH": "2025-12-10T22:36:47.199744", "MEAN_MOTION": 14.97746404, "ECCENTRICITY": 0.01706024, "INCLINATION": 98.611, "RA_OF_ASC_NODE": 54.7317, "ARG_OF_PERICENTER": 75.4276, "MEAN_ANOMALY": 286.5795, "EPHEMERIS_TYPE": 0, "CLASSIFICATION_TYPE": "U", "NORAD_CAT_ID": 31222, "ELEMENT_SET_NO": 999, "REV_AT_EPOCH": 99957, "BSTAR": 0.0008877602, "MEAN_MOTION_DOT": 0.00014012, "MEAN_MOTION_DDOT": 0}, "tle": {"line1": "1 31222U 99025BLC 25344.94221296  .00014012  00000+0  88776-3 0  9994", "line2": "2 31222  98.6110  54.7317 0170602  75.4276 286.5795 14.97746404999578"}}, "geometry": {"type": "Point", "coordinates": [55.67783057123538, -4.29730602284822]}}, {"type": "Feature", "properties": {"norad_id": 31223, "name": "FENGYUN 1C DEB", "group": "fengyun-1c-debris", "lat": 49.53187386195194, "lon": -139.1113161161735, "alt_km": 792.0730341563676, "timestamp": "2025-12-11T05:00:26.589953+00:00", "meta": {"OBJECT_NAME": "FENGYUN 1C DEB", "OBJECT_ID": "1999-025BLD", "EPOCH": "2025-12-08T15:45:00.855360", "MEAN_MOTION": 13.77212158, "ECCENTRICITY": 0.02419645, "INCLINATION": 99.0051, "RA_OF_ASC_NODE": 229.1805, "ARG_OF_PERICENTER": 51.571, "MEAN_ANOMALY": 310.6895, "EPHEMERIS_TYPE": 0, "CLASSIFICATION_TYPE": "U", "NORAD_CAT_ID": 31223, "ELEMENT_SET_NO": 999, "REV_AT_EPOCH": 92672, "BSTAR": 0.0033819639, "MEAN_MOTION_DOT": 4.12e-05, "MEAN_MOTION_DDOT": 0}, "tle": {"line1": "1 31223U 99025BLD 25342.65625990  .00004120  00000+0  33820-2 0  9998", "line2": "2 31223  99.0051 229.1805 0241964  51.5710 310.6895 13.77212158926724"}}, "geometry": {"type": "Point", "coordinates": [-139.1113161161735, 49.53187386195194]}}, {"type": "Feature", "properties": {"norad_id": 31224, "name": "FENGYUN 1C DEB", "group": "fengyun-1c-debris", "lat": -23.382487256496425, "lon": -19.18663161176136, "alt_km": 911.869208457696, "timestamp": "2025-12-11T05:00:26.589964+00:00", "meta": {"OBJECT_NAME": "FENGYUN 1C DEB", "OBJECT_ID": "1999-025BLE", "EPOCH": "2025-12-07T05:24:06.867936", "MEAN_MOTION": 14.28881555, "ECCENTRICITY": 0.01576901, "INCLINATION": 98.3695, "RA_OF_ASC_NODE": 333.3388, "ARG_OF_PERICENTER": 179.1537, "MEAN_ANOMALY": 197.3036, "EPHEMERIS_TYPE": 0, "CLASSIFICATION_TYPE": "U", "NORAD_CAT_ID": 31224, "ELEMENT_SET_NO": 999, "REV_AT_EPOCH": 69172, "BSTAR": 0.00051563663, "MEAN_MOTION_DOT": 1.444e-05, "MEAN_MOTION_DDOT": 0}, "tle": {"line1": "1 31224U 99025BLE 25341.22507949  .00001444  00000+0  51564-3 0  9996", "line2": "2 31224  98.3695 333.3388 0157690 179.1537 197.3036 14.28881555691727"}}, "geometry": {"type": "Point", "coordinates": [-19.18663161176136, -23.382487256496425]}}, {"type": "Feature", "properties": {"norad_id": 31225, "name": "FENGYUN 1C DEB", "group": "fengyun-1c-debris", "lat": 74.45395265730735, "lon": -86.90475815081587, "alt_km": 843.448725915101, "timestamp": "2025-12-11T05:00:26.589974+00:00", "meta": {"OBJECT_NAME": "FENGYUN 1C DEB", "OBJECT_ID": "1999-025BLF", "EPOCH": "2025-12-10T22:00:36.568224", "MEAN_MOTION": 14.17842891, "ECCENTRICITY": 0.00881158, "INCLINATION": 98.989, "RA_OF_ASC_NODE": 58.1202, "ARG_OF_PERICENTER": 356.6629, "MEAN_ANOMALY": 57.7615, "EPHEMERIS_TYPE": 0, "CLASSIFICATION_TYPE": "U", "NORAD_CAT_ID": 31225, "ELEMENT_SET_NO": 999, "REV_AT_EPOCH": 95796, "BSTAR": 0.0018239532, "MEAN_MOTION_DOT": 3.825e-05, "MEAN_MOTION_DDOT": 0}, "tle": {"line1": "1 31225U 99025BLF 25344.91708991  .00003825  00000+0  18240-2 0  9994", "line2": "2 31225  98.9890  58.1202 0088115 356.6629  57.7615 14.17842891957968"}}, "geometry": {"type": "Point", "coordinates": [-86.90475815081587, 74.45395265730735]}}]}